ORBCOMM-X               
1 21576U 91050C   25053.14930902  .00000696  00000+0  22015-3 0  9992
2 21576  98.3574 122.0351 0004046 158.5811 201.5549 14.43099594765525
ORBCOMM FM01            
1 23545U 95017A   25053.26954294  .00013197  00000+0  14504-2 0  9993
2 23545  69.9660   0.2691 0003128 208.0193 152.0792 14.87757454595403
ORBCOMM FM02            
1 23546U 95017B   25053.59772278  .00014558  00000+0  15845-2 0  9991
2 23546  69.9669  19.1102 0003454 186.2541 173.8570 14.88121983595098
ORBCOMM FM10            
1 25113U 97084B   25053.55998258  .00003855  00000+0  11361-2 0  9990
2 25113  45.0132 200.0747 0003195 339.3610  20.7112 14.44934447599934
ORBCOMM FM11            
1 25114U 97084C   25053.54496811  .00003178  00000+0  94859-3 0  9990
2 25114  45.0119 200.5750 0003989 345.6476  14.4261 14.44697225424897
ORBCOMM FM12            
1 25115U 97084D   25053.57828136  .00003413  00000+0  10154-2 0  9990
2 25115  45.0125 200.1775 0002986 338.3989  21.6736 14.44709016424699
ORBCOMM FM09            
1 25116U 97084E   25053.53221322  .00003501  00000+0  10426-2 0  9991
2 25116  45.0130 201.2242 0004571 327.1276  32.9290 14.44606103424899
